NORAD_CAT_ID,OBJECT_NAME,OBJECT_TYPE,EPOCH,MEAN_MOTION,ECCENTRICITY,INCLINATION,RA_OF_ASC_NODE,ARG_OF_PERICENTER,MEAN_ANOMALY,BSTAR,MEAN_MOTION_DOT,MEAN_MOTION_DDOT,TLE_LINE0,TLE_LINE1,TLE_LINE2,SEMIMAJOR_AXIS,PERIOD,APOGEE,PERIGEE,DECAYED
56774.0,STARLINK-6190,PAYLOAD,2024-05-08 12:19:41,14.98335784,0.0003084,70.0012,254.108,269.9622,90.1183,0.0001036,1.144e-05,0.0,0 STARLINK-6190,1 56774U 23078H   24129.51367692  .00001144  00000-0  10360-3 0  9999,2 56774  70.0012 254.1080 0003084 269.9622  90.1183 14.98335784 51800,6950.175,96.107,574.183,569.897,0.0
56774.0,STARLINK-6190,PAYLOAD,2024-05-08 18:44:13,14.98345685,0.0003047,70.0011,253.4351,269.3558,90.7252,0.00030941,3.602e-05,0.0,0 STARLINK-6190,1 56774U 23078H   24129.78071191  .00003602  00000-0  30941-3 0  9992,2 56774  70.0011 253.4351 0003047 269.3558  90.7252 14.98345685 52101,6950.144,96.106,574.127,569.892,0.0
56774.0,STARLINK-6190,PAYLOAD,2024-05-09 01:08:46,14.98337751,0.0002827,70.0022,252.7617,268.2865,91.7971,0.00029867,3.473e-05,0.0,0 STARLINK-6190,1 56774U 23078H   24130.04775631  .00003473  00000-0  29867-3 0  9994,2 56774  70.0022 252.7617 0002827 268.2865  91.7971 14.98337751 52142,6950.169,96.107,573.999,570.069,0.0
56774.0,STARLINK-6190,PAYLOAD,2024-05-09 13:57:50,14.98335406,0.0002806,70.0023,251.4164,262.4823,97.6017,0.00036432,4.257e-05,0.0,0 STARLINK-6190,1 56774U 23078H   24130.58183694  .00004257  00000-0  36432-3 0  9992,2 56774  70.0023 251.4164 0002806 262.4823  97.6017 14.98335406 51963,6950.176,96.107,573.991,570.091,0.0
56774.0,STARLINK-6190,PAYLOAD,2024-05-09 17:10:06,14.98337061,0.0002724,70.0021,251.0791,264.4594,95.6254,0.00034665,4.046e-05,0.0,0 STARLINK-6190,1 56774U 23078H   24130.71535583  .00004046  00000-0  34665-3 0  9997,2 56774  70.0021 251.0791 0002724 264.4594  95.6254 14.98337061 51981,6950.171,96.107,573.929,570.143,0.0
56774.0,STARLINK-6190,PAYLOAD,2024-05-10 12:23:43,14.98335249,0.0002751,70.0022,249.06,261.5184,98.5663,6.3301e-05,6.63e-06,0.0,0 STARLINK-6190,1 56774U 23078H   24131.51647423  .00000663  00000-0  63301-4 0  9994,2 56774  70.0022 249.0600 0002751 261.5184  98.5663 14.98335249 52366,6950.177,96.107,573.954,570.13,0.0
56774.0,STARLINK-6190,PAYLOAD,2024-05-10 13:59:51,14.98337987,0.0002772,70.0006,248.8913,265.9995,94.0848,0.00010396,1.148e-05,0.0,0 STARLINK-6190,1 56774U 23078H   24131.58323435  .00001148  00000-0  10396-3 0  9999,2 56774  70.0006 248.8913 0002772 265.9995  94.0848 14.98337987 52113,6950.168,96.106,573.96,570.107,0.0
56774.0,STARLINK-6190,PAYLOAD,2024-05-10 17:12:07,14.98338712,0.000274,70.0006,248.5545,265.5309,94.5537,9.7584e-05,1.072e-05,0.0,0 STARLINK-6190,1 56774U 23078H   24131.71675309  .00001072  00000-0  97584-4 0  9995,2 56774  70.0006 248.5545 0002740 265.5309  94.5537 14.98338712 52130,6950.166,96.106,573.935,570.127,0.0
56774.0,STARLINK-6190,PAYLOAD,2024-05-11 10:49:33,14.98399035,0.0002918,70.0019,246.7027,271.9754,88.1071,0.0013414,0.00015977,0.0,0 STARLINK-6190,1 56774U 23078H   24132.45107978  .00015977  00000-0  13414-2 0  9996,2 56774  70.0019 246.7027 0002918 271.9754  88.1071 14.98399035 52509,6949.979,96.103,573.872,569.816,0.0
56774.0,STARLINK-6190,PAYLOAD,2024-05-11 17:14:06,14.98332927,0.0002642,70.0026,246.03,278.2305,81.8554,-0.00039361,-4.786e-05,0.0,0 STARLINK-6190,1 56774U 23078H   24132.71813415 -.00004786  00000-0 -39361-3 0  9993,2 56774  70.0026 246.0300 0002642 278.2305  81.8554 14.98332927 52547,6950.184,96.107,573.885,570.213,0.0
56774.0,STARLINK-6190,PAYLOAD,2024-05-12 01:14:50,14.98264105,0.0002379,70.002,245.188,283.9314,76.158,-0.0019283,-0.00022986,0.0,0 STARLINK-6190,1 56774U 23078H   24133.05196868 -.00022986  00000-0 -19283-2 0  9999,2 56774  70.0020 245.1880 0002379 283.9314  76.1580 14.98264105 52597,6950.397,96.111,573.915,570.608,0.0
56774.0,STARLINK-6190,PAYLOAD,2024-05-12 12:27:50,14.98206804,0.0003063,70.0013,244.009,274.1687,85.9122,-0.0027461,-0.00032603,0.0,0 STARLINK-6190,1 56774U 23078H   24133.51933265 -.00032603  00000-0 -27461-2 0  9994,2 56774  70.0013 244.0090 0003063 274.1687  85.9122 14.98206804 52666,6950.574,96.115,574.568,570.31,0.0
56774.0,STARLINK-6190,PAYLOAD,2024-05-12 14:03:58,14.98204303,0.0003029,70.0012,243.8405,274.1585,85.9228,-0.0026709,-0.00031715,0.0,0 STARLINK-6190,1 56774U 23078H   24133.58609873 -.00031715  00000-0 -26709-2 0  9993,2 56774  70.0012 243.8405 0003029 274.1585  85.9228 14.98204303 52413,6950.582,96.115,574.552,570.341,0.0
56774.0,STARLINK-6190,PAYLOAD,2024-05-12 17:16:16,14.98201424,0.0003015,70.0012,243.5038,274.4744,85.6071,-0.0024722,-0.0002937,0.0,0 STARLINK-6190,1 56774U 23078H   24133.71962981 -.00029370  00000-0 -24722-2 0  9997,2 56774  70.0012 243.5038 0003015 274.4744  85.6071 14.98201424 52433,6950.591,96.115,574.551,570.36,0.0
56774.0,STARLINK-6190,PAYLOAD,2024-05-13 12:29:52,14.98318851,0.0002579,70.0026,241.486,262.1083,97.9783,0.0012377,0.00014702,0.0,0 STARLINK-6190,1 56774U 23078H   24134.52074379  .00014702  00000-0  12377-2 0  9996,2 56774  70.0026 241.4860 0002579 262.1083  97.9783 14.98318851 52813,6950.227,96.108,573.885,570.3,0.0
56774.0,STARLINK-6190,PAYLOAD,2024-05-13 14:06:00,14.98323593,0.0002876,70.0017,241.3172,269.8523,90.2307,0.0014159,0.00016839,0.0,0 STARLINK-6190,1 56774U 23078H   24134.58750376  .00016839  00000-0  14159-2 0  9993,2 56774  70.0017 241.3172 0002876 269.8523  90.2307 14.98323593 52560,6950.213,96.107,574.077,570.079,0.0
56774.0,STARLINK-6190,PAYLOAD,2024-05-14 10:55:44,14.98336677,0.0002649,70.0015,239.1266,277.4284,82.6574,0.002209,0.00026368,0.0,0 STARLINK-6190,1 56774U 23078H   24135.45538189  .00026368  00000-0  22090-2 0  9997,2 56774  70.0015 239.1266 0002649 277.4284  82.6574 14.98336677 52696,6950.172,96.107,573.878,570.196,0.0
56774.0,STARLINK-6190,PAYLOAD,2024-05-14 23:44:47,14.98363458,0.0002628,70.0025,237.7818,281.8559,78.2306,0.0018208,0.00021718,0.0,0 STARLINK-6190,1 56774U 23078H   24135.98944427  .00021718  00000-0  18208-2 0  9991,2 56774  70.0025 237.7818 0002628 281.8559  78.2306 14.98363458 53035,6950.089,96.105,573.781,570.128,0.0
56774.0,STARLINK-6190,PAYLOAD,2024-05-15 12:33:49,14.98389159,0.0002777,70.0018,236.4354,274.159,85.9251,0.00016166,1.839e-05,0.0,0 STARLINK-6190,1 56774U 23078H   24136.52348640  .00001839  00000-0  16166-3 0  9991,2 56774  70.0018 236.4354 0002777 274.1590  85.9251 14.98389159 53112,6950.01,96.103,573.805,569.945,0.0
56774.0,STARLINK-6190,PAYLOAD,2024-05-15 14:09:57,14.98388518,0.0002409,70.0028,236.2685,272.3408,87.7476,0.00014133,1.596e-05,0.0,0 STARLINK-6190,1 56774U 23078H   24136.59024469  .00001596  00000-0  14133-3 0  9990,2 56774  70.0028 236.2685 0002409 272.3408  87.7476 14.98388518 52866,6950.012,96.103,573.551,570.203,0.0
56774.0,STARLINK-6190,PAYLOAD,2024-05-15 15:46:04,14.98387823,0.0002349,70.0025,236.1,267.7367,92.3523,0.00022098,2.549e-05,0.0,0 STARLINK-6190,1 56774U 23078H   24136.65700229  .00002549  00000-0  22098-3 0  9990,2 56774  70.0025 236.1000 0002349 267.7367  92.3523 14.98387823 52872,6950.014,96.103,573.512,570.247,0.0
56774.0,STARLINK-6190,PAYLOAD,2024-05-16 12:35:48,14.9836615,0.0002989,70.001,233.9121,269.5169,90.5647,-0.0003948,-4.805e-05,0.0,0 STARLINK-6190,1 56774U 23078H   24137.52486634 -.00004805  00000-0 -39480-3 0  9990,2 56774  70.0010 233.9121 0002989 269.5169  90.5647 14.98366150 53266,6950.081,96.105,574.023,569.869,0.0
56774.0,STARLINK-6190,PAYLOAD,2024-05-16 17:24:12,14.9836897,0.0003065,69.9988,233.4017,271.386,88.6948,-0.00032264,-3.944e-05,0.0,0 STARLINK-6190,1 56774U 23078H   24137.72513949 -.00003944  00000-0 -32264-3 0  9998,2 56774  69.9988 233.4017 0003065 271.3860  88.6948 14.98368970 53030,6950.072,96.104,574.068,569.807,0.0
56774.0,STARLINK-6190,PAYLOAD,2024-05-16 23:48:44,14.98351712,0.0002936,70.0019,232.7325,278.8446,81.2381,-0.00032223,-3.938e-05,0.0,0 STARLINK-6190,1 56774U 23078H   24137.99218343 -.00003938  00000-0 -32223-3 0  9995,2 56774  70.0019 232.7325 0002936 278.8446  81.2381 14.98351712 53339,6950.126,96.106,574.031,569.95,0.0
56774.0,STARLINK-6190,PAYLOAD,2024-05-17 12:37:48,14.98346173,0.0003037,70.0001,231.3828,274.2428,85.8384,-0.00032251,-3.941e-05,0.0,0 STARLINK-6190,1 56774U 23078H   24138.52626003 -.00003941  00000-0 -32251-3 0  9996,2 56774  70.0001 231.3828 0003037 274.2428  85.8384 14.98346173 53154,6950.143,96.106,574.119,569.897,0.0
56774.0,STARLINK-6190,PAYLOAD,2024-05-17 23:50:45,14.98344396,0.0003325,70.0008,230.2074,274.8758,85.2021,-0.00027374,-3.359e-05,0.0,0 STARLINK-6190,1 56774U 23078H   24138.99357663 -.00003359  00000-0 -27374-3 0  9993,2 56774  70.0008 230.2074 0003325 274.8758  85.2021 14.98344396 53487,6950.148,96.106,574.324,569.702,0.0
56774.0,STARLINK-6190,PAYLOAD,2024-05-18 14:15:57,14.9834126,0.0003004,70.0008,228.6916,270.1986,89.8829,0.00010373,1.145e-05,0.0,0 STARLINK-6190,1 56774U 23078H   24139.59441820  .00001145  00000-0  10373-3 0  9999,2 56774  70.0008 228.6916 0003004 270.1986  89.8829 14.98341260 53314,6950.158,96.106,574.111,569.935,0.0
56774.0,STARLINK-6190,PAYLOAD,2024-05-18 15:52:05,14.98345697,0.0003156,70.0008,228.5242,270.7082,89.3716,0.00018175,2.077e-05,0.0,0 STARLINK-6190,1 56774U 23078H   24139.66117508  .00002077  00000-0  18175-3 0  9993,2 56774  70.0008 228.5242 0003156 270.7082  89.3716 14.98345697 53325,6950.144,96.106,574.203,569.816,0.0
56774.0,STARLINK-6190,PAYLOAD,2024-05-19 14:18:00,14.98312612,0.0002893,70.0014,226.1673,268.9423,91.1405,-0.0001879,-2.333e-05,0.0,0 STARLINK-6190,1 56774U 23078H   24140.59583830 -.00002333  00000-0 -18790-3 0  9992,2 56774  70.0014 226.1673 0002893 268.9423  91.1405 14.98312612 53461,6950.247,96.108,574.122,570.101,0.0
56774.0,STARLINK-6190,PAYLOAD,2024-05-20 12:43:52,14.9833924,0.0002846,70.0019,223.809,281.111,78.9729,0.00056793,6.692e-05,0.0,0 STARLINK-6190,1 56774U 23078H   24141.53047360  .00006692  00000-0  56793-3 0  9995,2 56774  70.0019 223.8090 0002846 281.1110  78.9729 14.98339240 53863,6950.164,96.106,574.007,570.051,0.0
